SatCatId,ObjectName,LaunchYear,OrbitalPeriod,LaunchMass,StatusCode,Inclination,Status,UcsData,OrbitClassEstimated,LaunchSiteCountry,Owner,UseType,Purpose,LaunchVehicleClass,TLE1,TLE2,MeanMotion,Eccentricity,OrbitClass
62593,STARLINK-11413 [DTC],2025,91.66,-1.0,+,43.0,Active,0,LEO,USA,USA,Unknown,Unknown,Unknown,1 62593U 25008G   25170.34460338  .00225160  00000+0  16981-2 0  9998,2 62593  42.9982 273.8128 0006163 291.7043  68.3168 15.71005067 25768,15.71005067,0.0006163,LEO
62594,STARLINK-11416 [DTC],2025,91.61,-1.0,+,43.0,Active,0,LEO,USA,USA,Unknown,Unknown,Unknown,1 62594U 25008H   25170.58335648 -.00064532  00000+0 -48088-3 0  9990,2 62594  42.9998 271.8714 0001571 267.4510 193.2361 15.71915966 25684,15.71915966,0.0001571,LEO
62595,STARLINK-11535 [DTC],2025,91.66,-1.0,+,43.0,Active,0,LEO,USA,USA,Unknown,Unknown,Unknown,1 62595U 25008J   25170.55115601  .00152141  00000+0  11667-2 0  9997,2 62595  43.0005 271.8947 0001015 254.4226 105.6530 15.70858308 25755,15.70858308,0.0001015,LEO
62596,STARLINK-11532 [DTC],2025,91.09,-1.0,+,42.99,Active,0,LEO,USA,USA,Unknown,Unknown,Unknown,1 62596U 25008K   25170.56291477  .00162954  00000+0  80075-3 0  9998,2 62596  42.9935 270.1902 0001229 248.5489 111.5252 15.80945214 25695,15.80945214,0.0001229,LEO
62597,STARLINK-11521 [DTC],2025,91.67,-1.0,+,43.0,Active,0,LEO,USA,USA,Unknown,Unknown,Unknown,1 62597U 25008L   25170.56708361  .00167463  00000+0  12806-2 0  9990,2 62597  42.9987 272.0228 0000722 145.3353 214.7562 15.70874389 25903,15.70874389,7.22e-05,LEO
62598,STARLINK-11258 [DTC],2025,91.66,-1.0,+,43.0,Active,0,LEO,USA,USA,Unknown,Unknown,Unknown,1 62598U 25008M   25170.57239383  .00147515  00000+0  11318-2 0  9998,2 62598  42.9979 272.0619 0000952 245.0182 115.0587 15.70861757 25907,15.70861757,9.52e-05,LEO
62599,STARLINK-11529 [DTC],2025,91.67,-1.0,+,43.0,Active,0,LEO,USA,USA,Unknown,Unknown,Unknown,1 62599U 25008N   25170.57770389  .00184550  00000+0  14073-2 0  9996,2 62599  42.9980 272.1050 0001211 260.6462  99.4269 15.70886197 25911,15.70886197,0.0001211,LEO
62600,STARLINK-32747,2025,94.27,-1.0,+,43.0,Active,0,LEO,USA,USA,Unknown,Unknown,Unknown,1 62600U 25008P   25170.46379176  .00026365  00000+0  96362-3 0  9997,2 62600  43.0015 324.8122 0001547 278.8736  81.1941 15.27599424 25301,15.27599424,0.0001547,LEO
62601,STARLINK-32767,2025,94.26,-1.0,+,43.0,Active,0,LEO,USA,USA,Unknown,Unknown,Unknown,1 62601U 25008Q   25170.68935427  .00014575  00000+0  53778-3 0  9993,2 62601  42.9982 323.0569 0000287 256.5915 103.4904 15.27599490 25402,15.2759949,2.87e-05,LEO
62602,STARLINK-32769,2025,94.27,-1.0,+,43.0,Active,0,LEO,USA,USA,Unknown,Unknown,Unknown,1 62602U 25008R   25170.69321297  .00024947  00000+0  91296-3 0  9990,2 62602  43.0016 323.0864 0001944 279.2059  80.8572 15.27581443 25399,15.27581443,0.0001944,LEO
62603,STARLINK-32778,2025,94.27,-1.0,+,43.0,Active,0,LEO,USA,USA,Unknown,Unknown,Unknown,1 62603U 25008S   25170.47535621  .00019793  00000+0  72713-3 0  9991,2 62603  43.0007 324.8985 0001217 276.7494  83.3219 15.27566968 25303,15.27566968,0.0001217,LEO
62604,STARLINK-32710,2025,94.27,-1.0,+,43.0,Active,0,LEO,USA,USA,Unknown,Unknown,Unknown,1 62604U 25008T   25170.74062328  .00018386  00000+0  67588-3 0  9992,2 62604  42.9963 322.5795 0002329  70.3462 289.7641 15.27584287 25322,15.27584287,0.0002329,LEO
62605,STARLINK-32742,2025,94.27,-1.0,+,43.0,Active,0,LEO,USA,USA,Unknown,Unknown,Unknown,1 62605U 25008U   25170.74446850  .00018630  00000+0  68456-3 0  9996,2 62605  43.0041 322.6066 0000949  82.6586 277.4373 15.27591641 25398,15.27591641,9.49e-05,LEO
62606,STARLINK-32783,2025,94.27,-1.0,+,43.01,Active,0,LEO,USA,USA,Unknown,Unknown,Unknown,1 62606U 25008V   25170.69705829  .00003493  00000+0  13653-3 0  9995,2 62606  43.0027 323.1190 0000883 198.1820 161.9000 15.27550400 25345,15.275504,8.83e-05,LEO
62607,STARLINK-32784,2025,94.27,-1.0,+,43.0,Active,0,LEO,USA,USA,Unknown,Unknown,Unknown,1 62607U 25008W   25170.48934084  .00027069  00000+0  98928-3 0  9993,2 62607  42.9977 324.1295 0001208 234.6263 125.4475 15.27589866 25376,15.27589866,0.0001208,LEO
62609,BUZZER-1,2025,94.83,-1.0,+,97.42,Active,0,LEO,USA,France,Unknown,Unknown,Unknown,1 62609U 25009A   25170.44749292  .00002750  00000+0  13671-3 0  9999,2 62609  97.4245 250.2198 0008803 154.1181 206.0495 15.18449807 23595,15.18449807,0.0008803,LEO
62610,EDISON-1,2025,94.65,-1.0,+,97.43,Active,0,LEO,USA,Denmark,Unknown,Unknown,Unknown,1 62610U 25009B   25170.18419573  .00009664  00000+0  43427-3 0  9991,2 62610  97.4317 250.4145 0007973 142.2170 217.9627 15.21320660 23580,15.2132066,0.0007973,LEO
62611,BALKAN-1,2025,94.82,-1.0,+,97.42,Active,0,LEO,USA,Bulgaria,Unknown,Unknown,Unknown,1 62611U 25009C   25170.19600093  .00004887  00000+0  23847-3 0  9998,2 62611  97.4243 249.9543 0008619 155.1395 205.0257 15.18719532 23554,15.18719532,0.0008619,LEO
62612,GESAT GEN1,2025,94.64,-1.0,+,97.43,Active,0,LEO,USA,France,Unknown,Unknown,Unknown,1 62612U 25009D   25170.48263892  .00005917  00000+0  26618-3 0  9997,2 62612  97.4318 250.9341 0002292 106.1720 253.9768 15.21479362 23642,15.21479362,0.0002292,LEO
62613,FLOCK 4G-8,2025,94.68,-1.0,+,97.43,Active,0,LEO,USA,USA,Unknown,Unknown,Unknown,1 62613U 25009E   25170.14427304  .00005681  00000+0  25967-3 0  9995,2 62613  97.4315 250.4688 0006005 139.3957 220.7727 15.20939026 23582,15.20939026,0.0006005,LEO
62614,OBJECT F,2025,94.24,-1.0,+,97.43,Active,0,LEO,USA,To Be Determined,Unknown,Unknown,Unknown,1 62614U 25009F   25170.21916736  .00023787  00000+0  87207-3 0  9998,2 62614  97.4252 251.1728 0007170 152.9722 207.1892 15.27962978 23638,15.27962978,0.000717,LEO
62615,OBJECT G,2025,94.77,-1.0,+,97.43,Active,0,LEO,USA,To Be Determined,Unknown,Unknown,Unknown,1 62615U 25009G   25170.19869600  .00004799  00000+0  22885-3 0  9996,2 62615  97.4259 250.1339 0007686 152.3857 207.7787 15.19538620 23563,15.1953862,0.0007686,LEO
62616,INNOCUBE (TUSAT-31),2025,94.75,-1.0,+,97.42,Active,0,LEO,USA,Germany,Unknown,Unknown,Unknown,1 62616U 25009H   25170.18229763  .00005702  00000+0  26900-3 0  9993,2 62616  97.4222 250.0827 0007571 156.7007 203.4572 15.19835024 23566,15.19835024,0.0007571,LEO
62617,SCOT-1 (SCOT),2025,94.44,-1.0,+,97.42,Active,0,LEO,USA,Singapore,Unknown,Unknown,Unknown,1 62617U 25009J   25170.25007503  .00015559  00000+0  63085-3 0  9994,2 62617  97.4196 250.7169 0007288 157.1457 203.0106 15.24699521 23613,15.24699521,0.0007288,LEO
62618,OBJECT K,2025,94.4,-1.0,+,97.43,Active,0,LEO,USA,To Be Determined,Unknown,Unknown,Unknown,1 62618U 25009K   25170.47376804  .00016939  00000+0  67118-3 0  9996,2 62618  97.4264 251.1467 0006564 162.2808 197.8660 15.25457102 23656,15.25457102,0.0006564,LEO
62619,IRIS-F3,2025,94.76,-1.0,+,97.44,Active,0,LEO,USA,Taiwan,Unknown,Unknown,Unknown,1 62619U 25009L   25170.19173965  .00005215  00000+0  24735-3 0  9992,2 62619  97.4356 250.3310 0008239 147.9206 212.2532 15.19681097 23576,15.19681097,0.0008239,LEO
62620,OBJECT M,2025,94.4,-1.0,+,97.43,Active,0,LEO,USA,To Be Determined,Unknown,Unknown,Unknown,1 62620U 25009M   25170.47258247  .00016755  00000+0  66386-3 0  9991,2 62620  97.4277 251.1811 0006686 146.3844 213.7819 15.25459742 23650,15.25459742,0.0006686,LEO
62621,FLOCK 4G-13,2025,94.72,-1.0,+,97.43,Active,0,LEO,USA,USA,Unknown,Unknown,Unknown,1 62621U 25009N   25170.22017753  .00006448  00000+0  29934-3 0  9996,2 62621  97.4304 250.3444 0007267 150.6995 209.4649 15.20338466 23574,15.20338466,0.0007267,LEO
62622,FLOCK 4G-9,2025,94.71,-1.0,+,97.43,Active,0,LEO,USA,USA,Unknown,Unknown,Unknown,1 62622U 25009P   25170.47264430  .00006102  00000+0  28281-3 0  9991,2 62622  97.4266 250.5455 0006625 148.0409 212.1229 15.20425584 23612,15.20425584,0.0006625,LEO
62623,OTTER,2025,94.68,-1.0,+,97.43,Active,0,LEO,USA,Germany,Unknown,Unknown,Unknown,1 62623U 25009Q   25170.17657264  .00008067  00000+0  36691-3 0  9996,2 62623  97.4331 250.4575 0006932 140.4809 219.6933 15.20970644 23581,15.20970644,0.0006932,LEO
62624,FLOCK 4G-7,2025,94.69,-1.0,+,97.42,Active,0,LEO,USA,USA,Unknown,Unknown,Unknown,1 62624U 25009R   25170.16523922  .00006691  00000+0  30719-3 0  9995,2 62624  97.4250 250.3044 0004149 140.4485 219.7053 15.20726749 23589,15.20726749,0.0004149,LEO
62625,FLOCK 4G-12,2025,94.69,-1.0,+,97.43,Active,0,LEO,USA,USA,Unknown,Unknown,Unknown,1 62625U 25009S   25169.75834282  .00006484  00000+0  29718-3 0  9990,2 62625  97.4320 250.0835 0005723 139.0865 221.0801 15.20790528 23525,15.20790528,0.0005723,LEO
62626,OBJECT T,2025,94.74,-1.0,+,97.42,Active,0,LEO,USA,To Be Determined,Unknown,Unknown,Unknown,1 62626U 25009T   25170.10875372  .00005504  00000+0  25842-3 0  9993,2 62626  97.4259 250.3044 0005681 123.5925 236.5853 15.20025118 23579,15.20025118,0.0005681,LEO
62627,RAY 1.0,2025,94.89,-1.0,+,97.43,Active,0,LEO,USA,USA,Unknown,Unknown,Unknown,1 62627U 25009U   25170.49474384  .00003059  00000+0  15520-3 0  9999,2 62627  97.4310 250.4510 0010973 101.2261 259.0207 15.17621825 23614,15.17621825,0.0010973,LEO
62628,ION SCV-016,2025,99.92,-1.0,+,97.49,Active,0,LEO,USA,Italy,Unknown,Unknown,Unknown,1 62628U 25009V   25170.45204042  .00028000  00000+0  64937-3 0  9997,2 62628  97.4867 245.2540 0625761 159.2830 203.4992 14.41166828 23177,14.41166828,0.0625761,LEO
62629,FLOCK 4G-11,2025,94.67,-1.0,+,97.42,Active,0,LEO,USA,USA,Unknown,Unknown,Unknown,1 62629U 25009W   25169.80321737  .00005752  00000+0  26199-3 0  9993,2 62629  97.4242 250.0108 0004218 140.1790 219.9755 15.21057075 23532,15.21057075,0.0004218,LEO
62630,ION SCV-014,2025,95.77,-1.0,+,97.52,Active,0,LEO,USA,Italy,Unknown,Unknown,Unknown,1 62630U 25009X   25170.48359800  .00001556  00000+0  11829-3 0  9995,2 62630  97.5233 249.1384 0003287 305.3701  54.7217 15.03553596 23450,15.03553596,0.0003287,LEO
62631,PELICAN-2,2025,93.54,-1.0,+,97.43,Active,0,LEO,USA,USA,Unknown,Unknown,Unknown,1 62631U 25009Y   25170.58335648  .00139750  00000+0  35047-2 0  9996,2 62631  97.4287 252.1715 0008515 232.3351 247.8219 15.39452517 23738,15.39452517,0.0008515,LEO
